NUSAT-1 (FRESCO)        
1 41557U 16033B   22257.19856163  .00016250  00000+0  45616-3 0  9990
2 41557  97.3903 355.1670 0011443  65.2747  22.0322 15.36566562351001
BEESAT-4                
1 41619U 16040W   22257.13329172  .00017295  00000+0  53984-3 0  9993
2 41619  97.2074 305.4788 0010106 150.8040 209.3770 15.33215170334302
CAS-2T & KS-1Q          
1 41847U 16066G   22257.15693725  .00000564  00000+0  95606-4 0  9993
2 41847  98.5430 321.7024 0362395 304.6354  52.1157 14.38719592307108
NAYIF-1 (EO-88)         
1 42017U 17008BX  22256.45697999  .00020729  00000+0  57252-3 0  9998
2 42017  97.2604 321.4046 0003039 291.2267  68.8653 15.37080220310589
ZHUHAI-1 02 (CAS-4B)    
1 42759U 17034B   22257.22359345  .00004367  00000+0  25944-3 0  9999
2 42759  43.0159 203.2041 0008017 129.7459 331.9405 15.12431361289793
ZHUHAI-1 01 (CAS-4A)    
1 42761U 17034D   22257.19468951  .00004335  00000+0  25702-3 0  9999
2 42761  43.0163 202.0882 0008393 132.7340   4.0659 15.12516030289797
MAX VALIER SAT          
1 42778U 17036P   22256.55869000  .00009327  00000+0  34156-3 0  9997
2 42778  97.1976 294.6666 0010881  23.5940 336.5797 15.28178656290357
RADFXSAT (FOX-1B)       
1 43017U 17073E   22257.17654309  .00003970  00000+0  30082-3 0  9990
2 43017  97.6612 147.7217 0245160 257.1045 100.2683 14.81986283260254
FOX-1D (AO-92)          
1 43137U 18004AC  22256.18673137  .00012144  00000+0  40971-3 0  9999
2 43137  97.3625 330.6104 0008541  58.7826 301.4251 15.30814689259763
DIWATA-2B               
1 43678U 18084H   22257.09604024  .00001010  00000+0  10463-3 0  9990
2 43678  97.9831  31.4674 0009977   1.2359 358.8850 14.92297217211076
ES'HAIL 2               
1 43700U 18090A   22257.12047316  .00000133  00000+0  00000+0 0  9999
2 43700   0.0193 157.4935 0002354  55.0854 209.6532  1.00272604 14165
FOX-1CLIFF (AO-95)      
1 43770U 18099N   22256.64396298  .00002998  00000+0  26655-3 0  9996
2 43770  97.6124 320.6899 0013420 344.8521  15.2297 14.96781536206202
ITASAT 1                
1 43786U 18099AE  22257.16478924  .00001923  00000+0  17228-3 0  9991
2 43786  97.6154 322.1623 0014165 335.6193  24.4357 14.96884210206329
JY1SAT (JO-97)          
1 43803U 18099AX  22257.15096776  .00002669  00000+0  23369-3 0  9992
2 43803  97.6127 321.9326 0013822 336.2334  23.8248 14.97465169206342
UWE-4                   
1 43880U 18111E   22257.15334661  .00004405  00000+0  37202-3 0  9991
2 43880  97.6586 161.9001 0012681  33.1761 327.0254 14.98555791200989
NEXUS (FO-99)           
1 43937U 19003F   22256.89273793  .00015912  00000+0  50574-3 0  9995
2 43937  97.1243 286.8823 0019457 191.1068 168.9748 15.32514911203519
PSAT2 (NO-104)          
1 44354U 19036R   22257.13745771  .00092290 -46331-5  69921-3 0  9997
2 44354  28.5246 279.5384 0198360 256.7298 101.1111 15.49005899178397
JAISAT-1                
1 44419U 19038F   22256.64115497  .00009861  00000+0  47935-3 0  9991
2 44419  97.6449 227.5849 0018701 179.7787 180.3458 15.18481504176430
DUCHIFAT-3              
1 44854U 19089C   22257.23999966  .00003785  00000+0  29241-3 0  9996
2 44854  36.9659 293.7921 0008549 228.5668 193.9548 15.01563688151280
CAS-6 (TIANQIN 1)       
1 44881U 19093C   22257.17531184  .00000564  00000+0  77975-4 0  9998
2 44881  97.8887 335.0965 0013617 257.3252 102.6463 14.81810356147910
RS-44 & BREEZE-KM R/B   
1 44909U 19096E   22257.16288796  .00000028  00000+0  60099-4 0  9993
2 44909  82.5252 171.3534 0218283 112.1877 250.2542 12.79714781126902
ORBITAL FACTORY 2 (OF-2)
1 45113U 19071C   22256.52380736  .00038843  00000+0  69406-3 0  9996
2 45113  51.6380 344.7499 0007613 129.9144 230.2515 15.49610203147018
HUSKYSAT-1 (HO-107)     
1 45119U 19071J   22256.66077389  .00033600  00000+0  63350-3 0  9992
2 45119  51.6382 344.8827 0007849 126.2737 233.8977 15.48143225147016
BY70-2                  
1 45857U 20042B   22257.18085629  .00006999  00000+0  91512-3 0  9997
2 45857  97.9518 333.2127 0010747 181.5915 178.5344 14.80708083118584
SALSAT                  
1 46495U 20068K   22256.80979640  .00002742  00000+0  19815-3 0  9995
2 46495  97.7332 198.1749 0015929 344.0939  15.9785 15.04827139107472
BY70-3                  
1 46839U 20079N   22257.11587146  .00030821  00000+0  64339-3 0  9990
2 46839  97.1915 328.2192 0005080  27.6950  36.3598 15.45464395103928
RADFXSAT-2 (AO-109)     
1 47311U 21002C   22256.86467445  .00011495  00000+0  44070-3 0  9999
2 47311  60.6864  29.1296 0031704  36.5682 323.7562 15.26514639 91956
UVSQ-SAT                
1 47438U 21006AB  22257.11609636  .00007919  00000+0  40862-3 0  9993
2 47438  97.4285 314.3175 0010726 333.8094  26.2595 15.16550914 90716
DIY-1 (ARDUIQUBE)       
1 47963U 21022AH  22256.47809237  .00021458  00000+0  11222-2 0  9992
2 47963  97.5212 156.9134 0015722 180.3593 179.7631 15.15771260 80278
XW-3 (CAS-9)            
1 50466U 21131B   22257.20419595  .00000245  00000+0  94707-4 0  9993
2 50466  98.5759 334.3978 0003704 233.0774 127.0074 14.38523360 37672
TEVEL-3                 
1 50988U 22002E   22257.13494596  .00008125  00000+0  43306-3 0  9999
2 50988  97.4741 322.6592 0010735 114.0216 301.0854 15.15395695 36845
TEVEL-8                 
1 50989U 22002F   22257.14331627  .00008079  00000+0  43125-3 0  9993
2 50989  97.4759 322.6965 0010983 114.0846 302.0878 15.15342405 36841
TEVEL-5                 
1 50998U 22002Q   22257.12980109  .00008418  00000+0  44206-3 0  9994
2 50998  97.4741 322.7997 0012329 110.8987 317.7052 15.15896038 36858
TEVEL-6                 
1 50999U 22002R   22257.12743205  .00008524  00000+0  44747-3 0  9997
2 50999  97.4737 322.7954 0012510 111.8470 307.1469 15.15901998 36854
TEVEL-1                 
1 51013U 22002AF  22257.13849376  .00008082  00000+0  43111-3 0  9995
2 51013  97.4743 322.6393 0010864 115.2307 299.1673 15.15368956 36849
TEVEL-7                 
1 51062U 22002CG  22257.14492884  .00008106  00000+0  43281-3 0  9993
2 51062  97.4758 322.6831 0010825 113.1056 301.9363 15.15335306 36842
TEVEL-4                 
1 51063U 22002CH  22257.14141789  .00008125  00000+0  43393-3 0  9994
2 51063  97.4752 322.6746 0010935 113.9222 276.6435 15.15325221 36840
TEVEL-2                 
1 51069U 22002CP  22257.13640660  .00008082  00000+0  43088-3 0  9994
2 51069  97.4744 322.6464 0010815 114.8073 300.4320 15.15388537 36843
YUZGU 9 (RS3S)          
1 53308U 98067TT  22257.15811865  .00052848  00000+0  80577-3 0  9998
2 53308  51.6395 255.0988 0000938 149.7340 210.3705 15.53940273  8538
YUZGU 7 (RS1S)          
1 53309U 98067TU  22257.15611352  .00054227  00000+0  82292-3 0  9997
2 53309  51.6391 255.0839 0000628 216.3544 143.7404 15.54058231  8487
YUZGU 11 (RS5S)         
1 53310U 98067TV  22257.15779765  .00053625  00000+0  81763-3 0  9995
2 53310  51.6395 255.0974 0000409 210.2077 149.8890 15.53933471  8511
YUZGU 12 (RS6S)         
1 53311U 98067TW  22257.15230279  .00057621  00000+0  86800-3 0  9995
2 53311  51.6389 255.0582 0001271 131.5589 228.5511 15.54234683  8538
TSIOLKOVSKY-RYAZAN 1 (*)
1 53312U 98067TX  22257.15430074  .00052721  00000+0  79959-3 0  9994
2 53312  51.6395 255.0727 0000759 232.8956 127.1965 15.54086901  8478
TSIOLKOVSKY-RYAZAN 2 (*)
1 53313U 98067TY  22257.15284935  .00054533  00000+0  82530-3 0  9990
2 53313  51.6394 255.0636 0000315 261.6457  98.4498 15.54130961  8524
YUZGU 10 (RS4S)         
1 53321U 98067TZ  22257.15845907  .00054889  00000+0  83534-3 0  9990
2 53321  51.6397 255.1033 0000667 162.5161 197.5853 15.53974740  8525
RS29S (SXC3-2110 CYCLO*)
1 53373U 22096D   22257.09389115  .00010776  00000+0  43555-3 0  9999
2 53373  97.4326 158.2938 0003690  76.2758  35.0720 15.24913157  5452
RS32S (SXC3-212 MONITO*)
1 53374U 22096E   22257.02321569  .00010886  00000+0  43852-3 0  9994
2 53374  97.4325 158.2300 0003665  67.9531  29.4143 15.25023157  5441
RS34S (SXC3-218 KUZBAS*)
1 53375U 22096F   22257.09198734  .00009390  00000+0  37914-3 0  9998
2 53375  97.4329 158.2979 0003614  67.6049  47.0869 15.24984276  5452
RS23S (SXC3-21 UTMN)    
1 53376U 22096G   22257.28911720  .00008500  00000+0  34331-3 0  9990
2 53376  97.4326 158.4955 0003542  65.3437  55.3638 15.25006215  5480
RS28S (SXC3-214 MIET-A*)
1 53377U 22096H   22257.09012609  .00009147  00000+0  36879-3 0  9995
2 53377  97.4325 158.2993 0003561  65.6402  47.1149 15.25044525  5455
RS26S (KAI-1)           
1 53378U 22096J   22257.08853770  .00008026  00000+0  32406-3 0  9994
2 53378  97.4321 158.2990 0003255  61.6395  45.5445 15.25038349  5454
RS19S (SXC3-219 ISOI)   
1 53381U 22096M   22257.07977155  .00008698  00000+0  34629-3 0  9995
2 53381  97.4328 158.3140 0003963 356.4784 116.1872 15.25482003  5455
RS21S (CUBESX-HSE-2)    
1 53383U 22096P   22257.21657104  .00008821  00000+0  35055-3 0  9994
2 53383  97.4322 158.4523 0003773 354.1905 156.8412 15.25538378  5476
RS30S (SXC3-217 SIREN)  
1 53384U 22096Q   22257.21619851  .00008251  00000+0  32810-3 0  9995
2 53384  97.4333 158.4520 0003816 352.8124 158.2339 15.25538700  5475
RS20S (GEOSCAN-EDELVEIS)
1 53385U 22096R   22257.21197704  .00011110  00000+0  43724-3 0  9998
2 53385  97.4324 158.4575 0004218 352.1999 159.0572 15.25797899  5504
RS33S (SXC3-215 VIZARD) 
1 53386U 22096S   22257.06837830  .00013738  00000+0  53493-3 0  9995
2 53386  97.4328 158.3289 0004841 348.5629 125.5332 15.26097242  5475
